NORAD_CAT_ID,OBJECT_NAME,OBJECT_TYPE,EPOCH,MEAN_MOTION,ECCENTRICITY,INCLINATION,RA_OF_ASC_NODE,ARG_OF_PERICENTER,MEAN_ANOMALY,BSTAR,MEAN_MOTION_DOT,MEAN_MOTION_DDOT,TLE_LINE0,TLE_LINE1,TLE_LINE2,SEMIMAJOR_AXIS,PERIOD,APOGEE,PERIGEE,DECAYED
55964.0,STARLINK-5895,PAYLOAD,2023-03-22 18:00:00,15.95184281,0.0041848,69.9998,167.7444,166.4706,297.259,-0.0022725,-0.0097496,0.00029794,0 STARLINK-5895,1 55964U 23037BC  23081.75001157 -.00974960  29794-3 -22725-2 0  9995,2 55964  69.9998 167.7444 0041848 166.4706 297.2590 15.95184281  1301,6665.938,90.272,315.699,259.907,0.0
55964.0,STARLINK-5895,PAYLOAD,2023-03-22 22:00:00,15.94795368,0.0039178,69.9996,167.2581,167.696,172.7848,-0.0021147,-0.00878797,0.0002449,0 STARLINK-5895,1 55964U 23037BC  23081.91667824 -.00878797  24490-3 -21147-2 0  9998,2 55964  69.9996 167.2581 0039178 167.6960 172.7848 15.94795368  1300,6667.022,90.294,315.007,262.767,0.0
55964.0,STARLINK-5895,PAYLOAD,2023-03-23 06:00:00,15.94208531,0.003707,70.0003,166.2861,168.421,284.8812,-0.002458,-0.00980287,0.00029791,0 STARLINK-5895,1 55964U 23037BC  23082.25001157 -.00980287  29791-3 -24580-2 0  9998,2 55964  70.0003 166.2861 0037070 168.4210 284.8812 15.94208531  1372,6668.658,90.327,315.243,265.802,0.0
55964.0,STARLINK-5895,PAYLOAD,2023-03-23 14:00:01,15.93527384,0.0033578,70.0002,165.3153,172.0635,33.3892,-0.002456,-0.00932824,0.0002699,0 STARLINK-5895,1 55964U 23037BC  23082.58335648 -.00932824  26990-3 -24560-2 0  9999,2 55964  70.0002 165.3153 0033578 172.0635  33.3892 15.93527384  1303,6670.558,90.366,314.821,270.024,0.0
55964.0,STARLINK-5895,PAYLOAD,2023-03-24 17:00:11,15.91348206,0.0023596,69.9999,162.045,183.1615,350.3417,-0.0029422,-0.00968869,0.00028319,0 STARLINK-5895,1 55964U 23037BC  23083.70846065 -.00968869  28319-3 -29422-2 0  9991,2 55964  69.9999 162.0450 0023596 183.1615 350.3417 15.91348206  1609,6676.646,90.489,314.265,282.757,0.0
55964.0,STARLINK-5895,PAYLOAD,2023-03-24 22:00:01,15.90965173,0.0022279,70.0,161.4405,185.124,100.7719,-0.0031727,-0.01021033,0.00031084,0 STARLINK-5895,1 55964U 23037BC  23083.91668981 -.01021033  31084-3 -31727-2 0  9991,2 55964  70.0000 161.4405 0022279 185.1240 100.7719 15.90965173  1307,6677.718,90.511,314.46,284.705,0.0
55964.0,STARLINK-5895,PAYLOAD,2023-03-25 06:00:00,15.90307745,0.0018136,70.0002,160.475,194.593,199.3973,-0.0032709,-0.0101008,0.00030274,0 STARLINK-5895,1 55964U 23037BC  23084.25001157 -.01010080  30274-3 -32709-2 0  9996,2 55964  70.0002 160.4750 0018136 194.5930 199.3973 15.90307745  1691,6679.558,90.549,313.537,289.309,0.0
55964.0,STARLINK-5895,PAYLOAD,2023-03-25 14:00:01,15.89640466,0.001602,70.0003,159.5098,200.8417,300.5308,-0.0032845,-0.00977572,0.0002831,0 STARLINK-5895,1 55964U 23037BC  23084.58334491 -.00977572  28310-3 -32845-2 0  9998,2 55964  70.0003 159.5098 0016020 200.8417 300.5308 15.89640466  1749,6681.427,90.587,313.996,292.588,0.0
55964.0,STARLINK-5895,PAYLOAD,2023-03-25 22:00:00,15.88963466,0.0013412,70.0002,158.5446,210.4952,37.4841,-0.003274,-0.00938908,0.00026099,0 STARLINK-5895,1 55964U 23037BC  23084.91667824 -.00938908  26099-3 -32740-2 0  9990,2 55964  70.0002 158.5446 0013412 210.4952  37.4841 15.88963466  1797,6683.325,90.625,314.153,296.226,0.0
55964.0,STARLINK-5895,PAYLOAD,2023-03-26 06:00:00,15.88361723,0.0011913,70.0005,157.5815,222.4093,131.3628,-0.0037176,-0.01032204,0.00030922,0 STARLINK-5895,1 55964U 23037BC  23085.25001157 -.01032204  30922-3 -37176-2 0  9992,2 55964  70.0005 157.5815 0011913 222.4093 131.3628 15.88361723  1854,6685.013,90.659,314.841,298.914,0.0
55964.0,STARLINK-5895,PAYLOAD,2023-03-26 22:00:01,15.87034649,0.0009917,69.9996,155.6573,249.3561,313.7694,-0.003802,-0.00898301,0.0,0 STARLINK-5895,1 55964U 23037BC  23085.91668981 -.00898301  00000-0 -38020-2 0  9996,2 55964  69.9996 155.6573 0009917 249.3561 313.7694 15.87034649  1301,6688.739,90.735,317.237,303.971,0.0
55964.0,STARLINK-5895,PAYLOAD,2023-03-27 06:00:00,15.86396805,0.0009717,69.9997,154.6964,263.6736,42.8458,-0.0040269,-0.0091959,0.0,0 STARLINK-5895,1 55964U 23037BC  23086.25001157 -.00919590  00000-0 -40269-2 0  9992,2 55964  69.9997 154.6964 0009717 263.6736  42.8458 15.86396805  2017,6690.532,90.772,318.898,305.895,0.0
55964.0,STARLINK-5895,PAYLOAD,2023-03-27 14:00:01,15.85744702,0.0008607,69.9998,153.7364,270.8896,138.3139,-0.0041718,-0.00921406,0.0,0 STARLINK-5895,1 55964U 23037BC  23086.58334491 -.00921406  00000-0 -41718-2 0  9997,2 55964  69.9998 153.7364 0008607 270.8896 138.3139 15.85744702  1306,6692.366,90.809,319.991,308.471,0.0
55964.0,STARLINK-5895,PAYLOAD,2023-03-27 22:00:00,15.85097437,0.0004692,70.0001,152.7779,275.2287,235.8737,-0.0043477,-0.00926665,0.0,0 STARLINK-5895,1 55964U 23037BC  23086.91667824 -.00926665  00000-0 -43477-2 0  9999,2 55964  70.0001 152.7779 0004692 275.2287 235.8737 15.85097437  2119,6694.187,90.846,319.193,312.911,0.0
55964.0,STARLINK-5895,PAYLOAD,2023-03-28 14:00:01,15.83781609,0.0003682,70.0001,150.8629,272.8436,79.7193,-0.0045335,-0.00908351,0.0,0 STARLINK-5895,1 55964U 23037BC  23087.58334491 -.00908351  00000-0 -45335-2 0  9991,2 55964  70.0001 150.8629 0003682 272.8436  79.7193 15.83781609  1309,6697.895,90.922,322.226,317.293,0.0
55964.0,STARLINK-5895,PAYLOAD,2023-03-28 22:00:00,15.83119831,0.000363,70.0,149.9065,279.6521,172.4697,-0.004601,-0.00894708,0.0,0 STARLINK-5895,1 55964U 23037BC  23087.91667824 -.00894708  00000-0 -46010-2 0  9998,2 55964  70.0000 149.9065 0003630 279.6521 172.4697 15.83119831  1306,6699.761,90.96,324.058,319.194,0.0
55964.0,STARLINK-5895,PAYLOAD,2023-03-29 02:00:01,15.82802568,0.0003683,70.0002,149.429,276.2941,45.3078,-0.0047453,-0.0090769,0.0,0 STARLINK-5895,1 55964U 23037BC  23088.08334491 -.00907690  00000-0 -47453-2 0  9995,2 55964  70.0002 149.4290 0003683 276.2941  45.3078 15.82802568  2307,6700.656,90.978,324.989,320.053,0.0
55964.0,STARLINK-5895,PAYLOAD,2023-03-29 14:00:01,15.81823879,0.0003602,70.0003,147.9975,269.9433,18.9364,-0.0049568,-0.00905698,0.0,0 STARLINK-5895,1 55964U 23037BC  23088.58334491 -.00905698  00000-0 -49568-2 0  9995,2 55964  70.0003 147.9975 0003602 269.9433  18.9364 15.81823879  1307,6703.42,91.034,327.699,322.87,0.0
55964.0,STARLINK-5895,PAYLOAD,2023-03-29 22:00:00,15.811714,0.000363,70.0,147.0434,270.2984,115.79,-0.0051137,-0.00906335,0.0,0 STARLINK-5895,1 55964U 23037BC  23088.91667824 -.00906335  00000-0 -51137-2 0  9995,2 55964  70.0000 147.0434 0003630 270.2984 115.7900 15.81171400  1300,6705.264,91.072,329.563,324.695,0.0
55964.0,STARLINK-5895,PAYLOAD,2023-03-30 00:00:00,15.81005857,0.0003505,70.0,146.8055,269.9743,230.2944,-0.005124,-0.00901637,0.0,0 STARLINK-5895,1 55964U 23037BC  23089.00001157 -.00901637  00000-0 -51240-2 0  9992,2 55964  70.0000 146.8055 0003505 269.9743 230.2944 15.81005857  2444,6705.732,91.081,329.947,325.247,0.0
55964.0,STARLINK-5895,PAYLOAD,2023-03-30 22:00:00,15.79214495,0.0003622,70.0003,144.189,270.9528,42.0652,-0.005596,-0.00906431,0.0,0 STARLINK-5895,1 55964U 23037BC  23089.91667824 -.00906431  00000-0 -55960-2 0  9991,2 55964  70.0003 144.1890 0003622 270.9528  42.0652 15.79214495  2596,6710.802,91.185,335.098,330.236,0.0
55964.0,STARLINK-5895,PAYLOAD,2023-03-31 22:00:00,15.77262056,0.0003538,70.0,141.3425,278.7227,314.1824,-0.0061532,-0.00911992,0.0,0 STARLINK-5895,1 55964U 23037BC  23090.91667824 -.00911992  00000-0 -61532-2 0  9993,2 55964  70.0000 141.3425 0003538 278.7227 314.1824 15.77262056  2749,6716.339,91.297,340.58,335.828,0.0
55964.0,STARLINK-5895,PAYLOAD,2023-04-01 14:00:01,15.75949252,0.0003606,69.9999,139.4498,272.7511,142.8382,-0.0064151,-0.00898444,0.0,0 STARLINK-5895,1 55964U 23037BC  23091.58334491 -.00898444  00000-0 -64151-2 0  9994,2 55964  69.9999 139.4498 0003606 272.7511 142.8382 15.75949252  1301,6720.068,91.374,344.357,339.51,0.0
55964.0,STARLINK-5895,PAYLOAD,2023-04-01 22:00:00,15.75299806,0.0003455,70.0002,138.5044,273.4902,232.2649,-0.0066313,-0.00902089,0.0,0 STARLINK-5895,1 55964U 23037BC  23091.91667824 -.00902089  00000-0 -66313-2 0  9993,2 55964  70.0002 138.5044 0003455 273.4902 232.2649 15.75299806  2900,6721.915,91.411,346.103,341.458,0.0
55964.0,STARLINK-5895,PAYLOAD,2023-04-02 14:00:01,15.73985825,0.0003683,70.0,136.6175,261.8319,61.9144,-0.006901,-0.00888118,0.0,0 STARLINK-5895,1 55964U 23037BC  23092.58334491 -.00888118  00000-0 -69010-2 0  9991,2 55964  70.0000 136.6175 0003683 261.8319  61.9144 15.73985825  1309,6725.656,91.487,349.998,345.044,0.0
55964.0,STARLINK-5895,PAYLOAD,2023-04-02 22:00:00,15.73338487,0.0003589,70.0002,135.6746,270.369,141.1959,-0.0071602,-0.00895248,0.0,0 STARLINK-5895,1 55964U 23037BC  23092.91667824 -.00895248  00000-0 -71602-2 0  9999,2 55964  70.0002 135.6746 0003589 270.3690 141.1959 15.73338487  3062,6727.5,91.525,351.78,346.951,0.0
55964.0,STARLINK-5895,PAYLOAD,2023-04-03 14:00:01,15.72036749,0.0003613,69.9997,133.7929,256.884,327.9736,-0.007608,-0.00899247,0.0,0 STARLINK-5895,1 55964U 23037BC  23093.58334491 -.00899247  00000-0 -76080-2 0  9992,2 55964  69.9997 133.7929 0003613 256.8840 327.9736 15.72036749  3161,6731.214,91.601,355.511,350.647,0.0
55964.0,STARLINK-5895,PAYLOAD,2023-04-03 22:00:00,15.71380438,0.0003603,70.0002,132.8532,265.3229,45.0098,-0.0077705,-0.00893814,0.0,0 STARLINK-5895,1 55964U 23037BC  23093.91667824 -.00893814  00000-0 -77705-2 0  9997,2 55964  70.0002 132.8532 0003603 265.3229  45.0098 15.71380438  1305,6733.088,91.639,357.379,352.527,0.0
55964.0,STARLINK-5895,PAYLOAD,2023-04-04 08:00:01,15.70492751,0.0003515,70.0003,131.6799,270.1478,236.0066,-0.0064792,-0.0073204,0.0,0 STARLINK-5895,1 55964U 23037BC  23094.33335648 -.00732040  00000-0 -64792-2 0  9995,2 55964  70.0003 131.6799 0003515 270.1478 236.0066 15.70492751  3287,6735.625,91.691,359.857,355.122,0.0
